satname,norad_id,inclination_deg,eccentricity,mean_motion_rev_per_day,perigee_km,apogee_km,l1,l2
STARLINK-1143,45179,53.0482,0.0005417,15.58527386,388.2509586482547,395.5856365576783,1 45179U 20012B   26053.91668981  .00193602  00000+0  24331-2 0  9990,2 45179  53.0482  41.9551 0005417  33.9781  46.4480 15.58527386  5813
STARLINK-1202,45183,53.1604,0.0001372,15.3019557,474.28801491402373,476.16857835141855,1 45183U 20012F   26053.66610740  .00001254  00000+0  54458-4 0  9993,2 45183  53.1604 109.0338 0001372 102.3150 257.8005 15.30195570332653
STARLINK-1216,45185,53.161,0.0001299,15.30192859,474.34613803754655,476.12664444459097,1 45185U 20012H   26053.59131546  .00000188  00000+0  18480-4 0  9999,2 45185  53.1610 109.3613 0001299  86.5458 273.5691 15.30192859332588
STARLINK-1225,45187,53.1596,0.0001409,15.30196999,474.2583913099252,476.1896684481453,1 45187U 20012K   26052.54318313  .00000327  00000+0  23166-4 0  9996,2 45187  53.1596 114.6700 0001409  83.1592 276.9569 15.30196999332461
STARLINK-1230,45189,53.1608,0.0001389,15.30187689,474.29989238447615,476.2037638009215,1 45189U 20012M   26053.85898382  .00000070  00000+0  14491-4 0  9998,2 45189  53.1608 108.6181 0001389  87.2098 272.9062 15.30187689329899
STARLINK-1234,45190,53.0458,0.0004941,15.58525176,388.5796101083379,395.26978507790045,1 45190U 20012N   26053.66374587  .00124663  00000+0  15827-2 0  9992,2 45190  53.0458  38.5424 0004941 286.7665  73.2804 15.58525176333536
STARLINK-1269,45197,53.1625,0.000155,15.30193701,474.17160467647955,476.2961496483995,1 45197U 20012V   26053.65984411  .00000678  00000+0  35035-4 0  9995,2 45197  53.1625 109.3986 0001550  90.2225 269.8953 15.30193701332614
STARLINK-1154,45198,53.0502,0.0006973,15.43356817,431.4588788524479,440.96216790855397,1 45198U 20012W   26053.09239750  .00032369  00000+0  72015-3 0  9993,2 45198  53.0502  84.2499 0006973  24.5066 335.6269 15.43356817332889
STARLINK-1199,45201,53.132,0.0001114,15.24185572,492.4666227474845,493.9975637814641,1 45201U 20012Z   26053.91668981  .00916833  00000+0  34413-1 0  9996,2 45201  53.1320  92.3230 0001114  83.8460 134.7517 15.24185572  5781
STARLINK-1209,45206,53.0491,0.0006463,15.47998004,418.18794535555026,426.9785563518044,1 45206U 20012AE  26053.13004075  .00082736  00000+0  15482-2 0  9995,2 45206  53.0491  48.0517 0006463 243.8604 116.1738 15.47998004332509
STARLINK-1210,45207,53.0095,0.0003998,16.07343384,251.48953907522446,256.7927086630707,1 45207U 20012AF  26053.81926836  .00730362  28586-3  89916-3 0  9991,2 45207  53.0095 336.1832 0003998 152.5343 207.5901 16.07343384334519
STARLINK-1231,45212,53.0476,0.000398,15.19653647,504.14631258498775,509.62679133234633,1 45212U 20012AL  26053.23128734  .00038859  00000+0  18048-2 0  9990,2 45212  53.0476  86.6981 0003980  20.7463 339.3692 15.19653647332876
STARLINK-1271,45217,53.1236,0.0001219,15.22500018,497.4644310753238,499.1409070666432,1 45217U 20012AR  26053.91668981  .01379910  00000+0  54062-1 0  9995,2 45217  53.1236  92.4487 0001219 122.1673 107.3251 15.22500018  5727
STARLINK-1191,45222,53.1609,0.0001414,15.31039411,471.74117490336903,473.6785944023486,1 45222U 20012AW  26053.25665292  .00001242  00000+0  52783-4 0  9990,2 45222  53.1609  70.5263 0001414 101.3201 258.7959 15.31039411333150
STARLINK-1212,45223,53.0526,0.0005471,15.45476902,426.2524311031766,433.70186960649517,1 45223U 20012AX  26053.63677509  .00268928  00000+0  53408-2 0  9996,2 45223  53.0526  62.3455 0005471  55.8247 304.3277 15.45476902333303
STARLINK-1215,45225,53.1609,0.0001397,15.30212263,474.22104638726796,476.1358627252712,1 45225U 20012AZ  26053.76390579  .00002569  00000+0  98802-4 0  9997,2 45225  53.1609  67.6321 0001397  89.8204 270.2957 15.30212263333196
STARLINK-1221,45227,53.067,0.0002669,15.41287603,440.4877280864048,444.1284816833913,1 45227U 20012BB  26053.02806376  .00015597  00000+0  37784-3 0  9991,2 45227  53.0670 343.7955 0002669  10.8149 349.2913 15.41287603334294
STARLINK-1222,45228,53.0563,0.0003703,15.48545377,418.46285076294043,423.4982772308367,1 45228U 20012BC  26053.71659757  .00027417  00000+0  51265-3 0  9991,2 45228  53.0563  54.5426 0003703  43.0634 317.0662 15.48545377333300
STARLINK-1226,45229,53.1612,0.0001357,15.31028904,471.81156400307555,473.6708923542028,1 45229U 20012BD  26053.27327440 -.00000619  00000+0 -84368-5 0  9993,2 45229  53.1612  70.2512 0001357  91.1320 268.9836 15.31028904333050
STARLINK-1227,45230,53.1609,0.0001303,15.3103106,471.84212797140844,473.62746516159314,1 45230U 20012BE  26053.75788300 -.00000333  00000+0  96674-6 0  9990,2 45230  53.1609  68.3121 0001303  87.1992 272.9159 15.31031060333244
STARLINK-1246,45235,53.1601,0.0001412,15.30196861,474.2567472879382,476.1921365591379,1 45235U 20012BK  26053.66926884  .00000453  00000+0  27425-4 0  9994,2 45235  53.1601 109.0167 0001412  71.5463 288.5691 15.30196861332675
STARLINK-1270,45237,53.0501,0.0004173,15.44280082,430.6517367242841,436.33672414920693,1 45237U 20012BM  26053.70972162  .00086914  00000+0  18471-2 0  9996,2 45237  53.0501  58.9618 0004173  18.9728 341.1432 15.44280082333353
STARLINK-1279,45360,53.0435,0.0003004,15.54296736,402.16028845152323,406.2351151403618,1 45360U 20019A   26053.53719594  .00109697  00000+0  16334-2 0  9999,2 45360  53.0435 172.0469 0003004 157.0705 203.0439 15.54296736328317
STARLINK-1301,45361,53.0435,0.0004644,15.6135445,380.6034853652545,386.8839201619812,1 45361U 20019B   26053.82835541  .00161469  00000+0  18305-2 0  9998,2 45361  53.0435 176.8312 0004644 157.8615 202.2599 15.61354450328286
STARLINK-1262,45366,53.082,0.0002238,15.13075337,525.2825340137424,528.3731962873844,1 45366U 20019G   26053.91668981  .00101728  00000+0  56205-2 0  9998,2 45366  53.0820 232.8185 0002238  88.1433  86.4353 15.13075337  5789
STARLINK-1273,45367,53.0521,7.68e-05,15.42722576,437.5545773396516,438.60154797327596,1 45367U 20019H   26053.77028630  .00101219  00000+0  22617-2 0  9999,2 45367  53.0521 225.6914 0000768 189.1012 170.9979 15.42722576327594
STARLINK-1276,45368,53.0552,0.0001351,15.0640311,546.2664129501527,548.137639555046,1 45368U 20019J   26053.75662570  .00000702  00000+0  66007-4 0  9993,2 45368  53.0552 233.6548 0001351  90.4691 269.6453 15.06403110327488
STARLINK-1277,45369,53.0522,3.71e-05,15.4606553,427.99650446283886,428.5015383056243,1 45369U 20019K   26053.83930937  .00065596  00000+0  13177-2 0  9998,2 45369  53.0522 223.5905 0000371 136.5253 223.5782 15.46065530327633
STARLINK-1281,45370,53.0655,0.0002466,15.0991046,534.7682112947778,538.1784971214738,1 45370U 20019L   26053.91668981  .00126124  00000+0  75765-2 0  9992,2 45370  53.0655 232.9176 0002466  94.3562 124.9352 15.09910460  5840
STARLINK-1300,45374,53.0558,0.0001512,15.06845094,544.8008382380431,546.8946512248494,1 45374U 20019Q   26053.70089322  .00057570  00000+0  38064-2 0  9998,2 45374  53.0558 233.9005 0001512  74.5859 285.5297 15.06845094327473
STARLINK-1302,45375,53.0532,0.0002805,15.47291628,422.7447062050105,426.56107133260866,1 45375U 20019R   26053.74091697  .00067949  00000+0  13077-2 0  9999,2 45375  53.0532 223.4204 0002805 203.4015 156.6865 15.47291628327623
STARLINK-1304,45376,53.0522,0.0003405,15.45480261,427.6491261822175,432.2854452007732,1 45376U 20019S   26053.71992713  .00080080  00000+0  16360-2 0  9995,2 45376  53.0522 220.9817 0003405 180.7889 179.3112 15.45480261327659
STARLINK-1305,45377,53.0469,0.0004355,15.49877145,414.1258201019846,420.0444585853529,1 45377U 20019T   26053.82901646  .00097264  00000+0  17002-2 0  9999,2 45377  53.0469 203.7249 0004355 116.3409 243.8046 15.49877145327913
STARLINK-1319,45379,53.0489,0.000345,15.55860708,397.3134737882883,401.99014806782907,1 45379U 20019V   26053.68637240  .00067092  00000+0  95101-3 0  9994,2 45379  53.0489 202.8810 0003450 131.9473 228.1832 15.55860708327913
STARLINK-1266,45383,53.0508,0.0001225,15.43203479,435.82710102746296,437.4967267613674,1 45383U 20019Z   26053.70782842  .00023143  00000+0  52115-3 0  9998,2 45383  53.0508 204.2218 0001225 291.2889  68.7985 15.43203479327883
STARLINK-1267,45384,53.054,0.0005996,15.46891016,421.7477000196741,429.9070140766462,1 45384U 20019AA  26053.77326838  .00047293  00000+0  92751-3 0  9997,2 45384  53.0540 198.3939 0005996 184.5568 175.5385 15.46891016327974
STARLINK-1272,45386,53.0461,0.0003465,15.53173475,405.1161028189181,409.81852660901495,1 45386U 20019AC  26053.62632955  .00106194  00000+0  16479-2 0  9991,2 45386  53.0461 182.5892 0003465 141.3520 218.7737 15.53173475328184
STARLINK-1274,45387,53.0284,0.000613,15.45143944,426.7811805325855,435.1291275134172,1 45387U 20019AD  26053.59423688  .00033562  00000+0  70260-3 0  9996,2 45387  53.0284 174.9611 0006130 180.9572 179.1422 15.45143944328281
STARLINK-1280,45388,53.0448,0.0003466,15.62526949,378.01810200994805,382.7030925443805,1 45388U 20019AE  26053.76411155  .00125199  00000+0  13639-2 0  9996,2 45388  53.0448 195.6620 0003466 135.0869 225.0425 15.62526949328006
STARLINK-1283,45389,53.0464,0.0005497,15.52948824,404.39130035165726,411.8521131738735,1 45389U 20019AF  26053.67721885  .00123861  00000+0  19316-2 0  9993,2 45389  53.0464 182.5409 0005497 175.6226 184.4832 15.52948824328197
STARLINK-1284,45390,53.0505,8.36e-05,15.48906076,419.3566493651042,420.4932853260443,1 45390U 20019AG  26053.65764288  .00087905  00000+0  15931-2 0  9994,2 45390  53.0505 203.1521 0000836 220.4101 139.6844 15.48906076327892
STARLINK-1297,45395,53.0497,9.61e-05,15.5100776,413.12976004452685,414.43516696541246,1 45395U 20019AM  26053.81891978  .00091858  00000+0  15446-2 0  9997,2 45395  53.0497 202.3300 0000961 300.6673  59.4241 15.51007760327107
STARLINK-1307,45397,53.0559,8.88e-05,15.49108775,418.7283270741191,419.9355575582749,1 45397U 20019AP  26053.78398198  .00055249  00000+0  10013-2 0  9990,2 45397  53.0559 202.2101 0000888  79.8619 280.2489 15.49108775327742
